[{"OBJECT_NAME":"DUCHIFAT-1","OBJECT_ID":"2014-033M","EPOCH":"2023-10-22T10:47:11.563296","MEAN_MOTION":15.00431017,"ECCENTRICITY":0.0011044,"INCLINATION":98.0702,"RA_OF_ASC_NODE":263.7847,"ARG_OF_PERICENTER":182.3342,"MEAN_ANOMALY":177.7831,"EPHEMERIS_TYPE":0,"CLASSIFICATION_TYPE":"U","NORAD_CAT_ID":40021,"ELEMENT_SET_NO":999,"REV_AT_EPOCH":50825,"BSTAR":0.00076101,"MEAN_MOTION_DOT":9.526e-5,"MEAN_MOTION_DDOT":0},{"OBJECT_NAME":"NANOSATC-BR1","OBJECT_ID":"2014-033Q","EPOCH":"2023-10-22T08:04:04.433088","MEAN_MOTION":14.97968346,"ECCENTRICITY":0.0009086,"INCLINATION":98.043,"RA_OF_ASC_NODE":253.9031,"ARG_OF_PERICENTER":212.8469,"MEAN_ANOMALY":147.2188,"EPHEMERIS_TYPE":0,"CLASSIFICATION_TYPE":"U","NORAD_CAT_ID":40024,"ELEMENT_SET_NO":999,"REV_AT_EPOCH":50743,"BSTAR":0.00060941,"MEAN_MOTION_DOT":7.136e-5,"MEAN_MOTION_DDOT":0},{"OBJECT_NAME":"QB50P1","OBJECT_ID":"2014-033R","EPOCH":"2023-10-22T14:32:13.507296","MEAN_MOTION":14.95486225,"ECCENTRICITY":0.0009317,"INCLINATION":98.0094,"RA_OF_ASC_NODE":244.8404,"ARG_OF_PERICENTER":223.7731,"MEAN_ANOMALY":136.2751,"EPHEMERIS_TYPE":0,"CLASSIFICATION_TYPE":"U","NORAD_CAT_ID":40025,"ELEMENT_SET_NO":999,"REV_AT_EPOCH":50717,"BSTAR":0.00059507,"MEAN_MOTION_DOT":6.535e-5,"MEAN_MOTION_DDOT":0},{"OBJECT_NAME":"DTUSAT-2","OBJECT_ID":"2014-033W","EPOCH":"2023-10-22T13:26:17.489760","MEAN_MOTION":14.94565496,"ECCENTRICITY":0.0009052,"INCLINATION":97.9773,"RA_OF_ASC_NODE":237.9016,"ARG_OF_PERICENTER":222.9737,"MEAN_ANOMALY":137.0776,"EPHEMERIS_TYPE":0,"CLASSIFICATION_TYPE":"U","NORAD_CAT_ID":40030,"ELEMENT_SET_NO":999,"REV_AT_EPOCH":50701,"BSTAR":0.00049645,"MEAN_MOTION_DOT":5.314e-5,"MEAN_MOTION_DDOT":0},{"OBJECT_NAME":"QB50P2","OBJECT_ID":"2014-033Y","EPOCH":"2023-10-22T14:26:33.201888","MEAN_MOTION":14.94591231,"ECCENTRICITY":0.0008735,"INCLINATION":97.9777,"RA_OF_ASC_NODE":237.9602,"ARG_OF_PERICENTER":221.6306,"MEAN_ANOMALY":138.4249,"EPHEMERIS_TYPE":0,"CLASSIFICATION_TYPE":"U","NORAD_CAT_ID":40032,"ELEMENT_SET_NO":999,"REV_AT_EPOCH":50699,"BSTAR":0.0006156,"MEAN_MOTION_DOT":6.609e-5,"MEAN_MOTION_DDOT":0},{"OBJECT_NAME":"PERSEUS-M2","OBJECT_ID":"2014-033AD","EPOCH":"2023-10-22T09:03:27.078336","MEAN_MOTION":14.89018909,"ECCENTRICITY":0.0011983,"INCLINATION":97.9095,"RA_OF_ASC_NODE":220.8214,"ARG_OF_PERICENTER":261.894,"MEAN_ANOMALY":98.0917,"EPHEMERIS_TYPE":0,"CLASSIFICATION_TYPE":"U","NORAD_CAT_ID":40037,"ELEMENT_SET_NO":999,"REV_AT_EPOCH":50627,"BSTAR":0.00026085,"MEAN_MOTION_DOT":2.401e-5,"MEAN_MOTION_DDOT":0},{"OBJECT_NAME":"PERSEUS-M1","OBJECT_ID":"2014-033AF","EPOCH":"2023-10-22T08:37:44.593824","MEAN_MOTION":14.88709278,"ECCENTRICITY":0.0011784,"INCLINATION":97.893,"RA_OF_ASC_NODE":217.4992,"ARG_OF_PERICENTER":261.2569,"MEAN_ANOMALY":98.7313,"EPHEMERIS_TYPE":0,"CLASSIFICATION_TYPE":"U","NORAD_CAT_ID":40039,"ELEMENT_SET_NO":999,"REV_AT_EPOCH":50613,"BSTAR":0.00026836,"MEAN_MOTION_DOT":2.453e-5,"MEAN_MOTION_DDOT":0},{"OBJECT_NAME":"POLYITAN-1","OBJECT_ID":"2014-033AJ","EPOCH":"2023-10-22T14:03:32.700096","MEAN_MOTION":14.96833426,"ECCENTRICITY":0.0011083,"INCLINATION":98.0212,"RA_OF_ASC_NODE":247.1049,"ARG_OF_PERICENTER":216.8028,"MEAN_ANOMALY":143.2433,"EPHEMERIS_TYPE":0,"CLASSIFICATION_TYPE":"U","NORAD_CAT_ID":40042,"ELEMENT_SET_NO":999,"REV_AT_EPOCH":50708,"BSTAR":0.00062236,"MEAN_MOTION_DOT":7.081e-5,"MEAN_MOTION_DDOT":0},{"OBJECT_NAME":"TIGRISAT","OBJECT_ID":"2014-033AK","EPOCH":"2023-10-22T10:17:58.407072","MEAN_MOTION":14.77181642,"ECCENTRICITY":0.0057157,"INCLINATION":97.6742,"RA_OF_ASC_NODE":104.1526,"ARG_OF_PERICENTER":1.7409,"MEAN_ANOMALY":358.399,"EPHEMERIS_TYPE":0,"CLASSIFICATION_TYPE":"U","NORAD_CAT_ID":40043,"ELEMENT_SET_NO":999,"REV_AT_EPOCH":50219,"BSTAR":0.00035292,"MEAN_MOTION_DOT":2.515e-5,"MEAN_MOTION_DDOT":0},{"OBJECT_NAME":"LEMUR-1","OBJECT_ID":"2014-033AL","EPOCH":"2023-10-22T11:05:54.227616","MEAN_MOTION":14.77059581,"ECCENTRICITY":0.0056375,"INCLINATION":97.678,"RA_OF_ASC_NODE":103.5099,"ARG_OF_PERICENTER":4.7328,"MEAN_ANOMALY":355.4404,"EPHEMERIS_TYPE":0,"CLASSIFICATION_TYPE":"U","NORAD_CAT_ID":40044,"ELEMENT_SET_NO":999,"REV_AT_EPOCH":50204,"BSTAR":0.0003636,"MEAN_MOTION_DOT":2.583e-5,"MEAN_MOTION_DDOT":0},{"OBJECT_NAME":"AEROCUBE 6A","OBJECT_ID":"2014-033AM","EPOCH":"2023-10-22T11:05:50.634240","MEAN_MOTION":14.80020871,"ECCENTRICITY":0.005336,"INCLINATION":97.6599,"RA_OF_ASC_NODE":114.2135,"ARG_OF_PERICENTER":344.5738,"MEAN_ANOMALY":15.3845,"EPHEMERIS_TYPE":0,"CLASSIFICATION_TYPE":"U","NORAD_CAT_ID":40045,"ELEMENT_SET_NO":999,"REV_AT_EPOCH":50244,"BSTAR":0.00060568,"MEAN_MOTION_DOT":4.645e-5,"MEAN_MOTION_DDOT":0},{"OBJECT_NAME":"AEROCUBE 6B","OBJECT_ID":"2014-033AN","EPOCH":"2023-10-22T10:18:22.792608","MEAN_MOTION":14.80808302,"ECCENTRICITY":0.0051918,"INCLINATION":97.6552,"RA_OF_ASC_NODE":112.7112,"ARG_OF_PERICENTER":341.2492,"MEAN_ANOMALY":18.6807,"EPHEMERIS_TYPE":0,"CLASSIFICATION_TYPE":"U","NORAD_CAT_ID":40046,"ELEMENT_SET_NO":999,"REV_AT_EPOCH":50247,"BSTAR":0.00062202,"MEAN_MOTION_DOT":4.858e-5,"MEAN_MOTION_DDOT":0},{"OBJECT_NAME":"SPOT 7","OBJECT_ID":"2014-034A","EPOCH":"2023-10-22T13:19:31.867680","MEAN_MOTION":14.58884412,"ECCENTRICITY":0.0001351,"INCLINATION":98.1907,"RA_OF_ASC_NODE":1.0637,"ARG_OF_PERICENTER":78.6904,"MEAN_ANOMALY":281.4447,"EPHEMERIS_TYPE":0,"CLASSIFICATION_TYPE":"U","NORAD_CAT_ID":40053,"ELEMENT_SET_NO":999,"REV_AT_EPOCH":49579,"BSTAR":0.00018885,"MEAN_MOTION_DOT":8.39e-6,"MEAN_MOTION_DDOT":0},{"OBJECT_NAME":"CANX-4","OBJECT_ID":"2014-034C","EPOCH":"2023-10-22T11:20:55.292352","MEAN_MOTION":14.76991212,"ECCENTRICITY":0.0012748,"INCLINATION":98.3957,"RA_OF_ASC_NODE":115.4541,"ARG_OF_PERICENTER":229.6769,"MEAN_ANOMALY":130.3326,"EPHEMERIS_TYPE":0,"CLASSIFICATION_TYPE":"U","NORAD_CAT_ID":40055,"ELEMENT_SET_NO":999,"REV_AT_EPOCH":50130,"BSTAR":0.00028883,"MEAN_MOTION_DOT":1.981e-5,"MEAN_MOTION_DDOT":0},{"OBJECT_NAME":"CANX-5","OBJECT_ID":"2014-034D","EPOCH":"2023-10-22T11:30:09.845568","MEAN_MOTION":14.76997082,"ECCENTRICITY":0.001273,"INCLINATION":98.3956,"RA_OF_ASC_NODE":115.4528,"ARG_OF_PERICENTER":229.6473,"MEAN_ANOMALY":130.3624,"EPHEMERIS_TYPE":0,"CLASSIFICATION_TYPE":"U","NORAD_CAT_ID":40056,"ELEMENT_SET_NO":999,"REV_AT_EPOCH":49211,"BSTAR":0.00029111,"MEAN_MOTION_DOT":1.998e-5,"MEAN_MOTION_DDOT":0},{"OBJECT_NAME":"OCO 2","OBJECT_ID":"2014-035A","EPOCH":"2023-10-22T13:42:10.150848","MEAN_MOTION":14.5712178,"ECCENTRICITY":0.0001079,"INCLINATION":98.2116,"RA_OF_ASC_NODE":234.7029,"ARG_OF_PERICENTER":102.0676,"MEAN_ANOMALY":258.0643,"EPHEMERIS_TYPE":0,"CLASSIFICATION_TYPE":"U","NORAD_CAT_ID":40059,"ELEMENT_SET_NO":999,"REV_AT_EPOCH":49499,"BSTAR":0.00023648,"MEAN_MOTION_DOT":1.021e-5,"MEAN_MOTION_DDOT":0},{"OBJECT_NAME":"GONETS-M 8","OBJECT_ID":"2014-036A","EPOCH":"2023-10-22T13:32:46.038336","MEAN_MOTION":12.42934695,"ECCENTRICITY":0.0030263,"INCLINATION":82.5142,"RA_OF_ASC_NODE":189.2301,"ARG_OF_PERICENTER":101.0227,"MEAN_ANOMALY":259.4259,"EPHEMERIS_TYPE":0,"CLASSIFICATION_TYPE":"U","NORAD_CAT_ID":40061,"ELEMENT_SET_NO":999,"REV_AT_EPOCH":42211,"BSTAR":0.00014735,"MEAN_MOTION_DOT":3.1e-7,"MEAN_MOTION_DDOT":0}]
