DUCHIFAT-1              
1 40021U 14033M   23295.44943939  .00009526  00000+0  76101-3 0  9993
2 40021  98.0702 263.7847 0011044 182.3342 177.7831 15.00431017508251
NANOSATC-BR1            
1 40024U 14033Q   23295.33616242  .00007136  00000+0  60941-3 0  9998
2 40024  98.0430 253.9031 0009086 212.8469 147.2188 14.97968346507431
QB50P1                  
1 40025U 14033R   23295.60571189  .00006535  00000+0  59507-3 0  9997
2 40025  98.0094 244.8404 0009317 223.7731 136.2751 14.95486225507175
DTUSAT-2                
1 40030U 14033W   23295.55992465  .00005314  00000+0  49645-3 0  9997
2 40030  97.9773 237.9016 0009052 222.9737 137.0776 14.94565496507014
QB50P2                  
1 40032U 14033Y   23295.60177317  .00006609  00000+0  61560-3 0  9994
2 40032  97.9777 237.9602 0008735 221.6306 138.4249 14.94591231506998
PERSEUS-M2              
1 40037U 14033AD  23295.37739674  .00002401  00000+0  26085-3 0  9992
2 40037  97.9095 220.8214 0011983 261.8940  98.0917 14.89018909506279
PERSEUS-M1              
1 40039U 14033AF  23295.35954391  .00002453  00000+0  26836-3 0  9998
2 40039  97.8930 217.4992 0011784 261.2569  98.7313 14.88709278506130
POLYITAN-1              
1 40042U 14033AJ  23295.58579514  .00007081  00000+0  62236-3 0  9993
2 40042  98.0212 247.1049 0011083 216.8028 143.2433 14.96833426507087
TIGRISAT                
1 40043U 14033AK  23295.42914823  .00002515  00000+0  35292-3 0  9992
2 40043  97.6742 104.1526 0057157   1.7409 358.3990 14.77181642502198
LEMUR-1                 
1 40044U 14033AL  23295.46243319  .00002583  00000+0  36360-3 0  9994
2 40044  97.6780 103.5099 0056375   4.7328 355.4404 14.77059581502041
AEROCUBE 6A             
1 40045U 14033AM  23295.46239160  .00004645  00000+0  60568-3 0  9992
2 40045  97.6599 114.2135 0053360 344.5738  15.3845 14.80020871502440
AEROCUBE 6B             
1 40046U 14033AN  23295.42943047  .00004858  00000+0  62202-3 0  9998
2 40046  97.6552 112.7112 0051918 341.2492  18.6807 14.80808302502476
SPOT 7                  
1 40053U 14034A   23295.55522995  .00000839  00000+0  18885-3 0  9999
2 40053  98.1907   1.0637 0001351  78.6904 281.4447 14.58884412495798
CANX-4                  
1 40055U 14034C   23295.47286218  .00001981  00000+0  28883-3 0  9995
2 40055  98.3957 115.4541 0012748 229.6769 130.3326 14.76991212501300
CANX-5                  
1 40056U 14034D   23295.47928062  .00001998  00000+0  29111-3 0  9999
2 40056  98.3956 115.4528 0012730 229.6473 130.3624 14.76997082492118
OCO 2                   
1 40059U 14035A   23295.57095082  .00001021  00000+0  23648-3 0  9997
2 40059  98.2116 234.7029 0001079 102.0676 258.0643 14.57121780494992
GONETS-M 8              
1 40061U 14036A   23295.56442174  .00000031  00000+0  14735-3 0  9995
2 40061  82.5142 189.2301 0030263 101.0227 259.4259 12.42934695422117
